{"fetched_at":"2026-03-29T02:12:04Z","count":15717,"tles":[{"name":"STARLINK-2373","line1":"1 47796U 21018K   26087.43459136 -.00000198  00000+0  55934-5 0  9992","line2":"2 47796  53.0546 147.4696 0001565  87.8656 272.2512 15.06389400279704","category":"Starlink"}]}